STARLINK-31569          
1 59857U 24097Y   26068.54335778 -.00000486  00000+0 -81529-5 0  9999
2 59857  42.9989 275.2507 0000971 265.8259  94.2482 15.27575028101899
FLOCK 4G-8              
1 62613U 25009E   26068.72381419  .00013559  00000+0  50438-3 0  9996
2 62613  97.4045 151.2834 0003050 315.2538  44.8455 15.27623414 63721
